NORAD_CAT_ID,OBJECT_NAME,OBJECT_TYPE,EPOCH,MEAN_MOTION,ECCENTRICITY,INCLINATION,RA_OF_ASC_NODE,ARG_OF_PERICENTER,MEAN_ANOMALY,BSTAR,MEAN_MOTION_DOT,MEAN_MOTION_DDOT,TLE_LINE0,TLE_LINE1,TLE_LINE2,SEMIMAJOR_AXIS,PERIOD,APOGEE,PERIGEE,DECAYED
55269.0,STARLINK-5277,PAYLOAD,2024-05-10 13:18:15,14.98323391,0.000311,69.9998,289.1441,268.4417,91.6386,-1.4534e-05,-2.66e-06,0.0,0 STARLINK-5277,1 55269U 23010A   24131.55434521 -.00000266  00000-0 -14534-4 0  9990,2 55269  69.9998 289.1441 0003110 268.4417  91.6386 14.98323391 72392,6950.213,96.107,574.24,569.917,0.0
55269.0,STARLINK-5277,PAYLOAD,2024-05-10 14:54:23,14.98323154,0.0003113,69.9998,288.9758,268.4001,91.6801,-1.7715e-05,-3.04e-06,0.0,0 STARLINK-5277,1 55269U 23010A   24131.62110564 -.00000304  00000-0 -17715-4 0  9993,2 55269  69.9998 288.9758 0003113 268.4001  91.6801 14.98323154 72997,6950.214,96.107,574.243,569.915,0.0
55269.0,STARLINK-5277,PAYLOAD,2024-05-10 21:18:55,14.98326068,0.0003157,69.9996,288.3024,269.8472,90.2326,3.2421e-05,2.94e-06,0.0,0 STARLINK-5277,1 55269U 23010A   24131.88814295  .00000294  00000-0  32421-4 0  9990,2 55269  69.9996 288.3024 0003157 269.8472  90.2326 14.98326068 73030,6950.205,96.107,574.264,569.876,0.0
55269.0,STARLINK-5277,PAYLOAD,2024-05-11 13:20:12,14.98374388,0.0002698,70.0024,286.6187,214.1276,145.971,0.00039959,4.683e-05,0.0,0 STARLINK-5277,1 55269U 23010A   24132.55569600  .00004683  00000-0  39959-3 0  9990,2 55269  70.0024 286.6187 0002698 214.1276 145.9710 14.98374388 72548,6950.056,96.104,573.796,570.046,0.0
55269.0,STARLINK-5277,PAYLOAD,2024-05-11 19:44:48,14.98308167,0.0002978,70.0002,285.946,253.7982,106.285,-0.00030824,-3.767e-05,0.0,0 STARLINK-5277,1 55269U 23010A   24132.82278624 -.00003767  00000-0 -30824-3 0  9999,2 55269  70.0002 285.9460 0002978 253.7982 106.2850 14.98308167 72585,6950.26,96.108,574.195,570.056,0.0
55269.0,STARLINK-5277,PAYLOAD,2024-05-12 03:45:31,14.98279015,0.0002943,70.0001,285.1044,266.7452,93.337,-0.00058478,-7.054e-05,0.0,0 STARLINK-5277,1 55269U 23010A   24133.15661864 -.00007054  00000-0 -58478-3 0  9996,2 55269  70.0001 285.1044 0002943 266.7452  93.3370 14.98279015 72630,6950.351,96.11,574.261,570.17,0.0
55269.0,STARLINK-5277,PAYLOAD,2024-05-12 13:22:19,14.98297649,0.0002693,69.9994,284.0933,247.8381,112.2492,-0.00019813,-2.454e-05,0.0,0 STARLINK-5277,1 55269U 23010A   24133.55717529 -.00002454  00000-0 -19813-3 0  9999,2 55269  69.9994 284.0933 0002693 247.8381 112.2492 14.98297649 72691,6950.293,96.109,574.03,570.286,0.0
55269.0,STARLINK-5277,PAYLOAD,2024-05-12 19:46:51,14.98306374,0.0003028,69.999,283.4198,268.6542,91.427,-0.00013684,-1.724e-05,0.0,0 STARLINK-5277,1 55269U 23010A   24133.82421183 -.00001724  00000-0 -13684-3 0  9996,2 55269  69.9990 283.4198 0003028 268.6542  91.4270 14.98306374 72739,6950.266,96.109,574.235,570.026,0.0
55269.0,STARLINK-5277,PAYLOAD,2024-05-13 11:48:10,14.983513,0.0003091,69.9991,281.7368,267.9815,92.099,-0.00028423,-3.485e-05,0.0,0 STARLINK-5277,1 55269U 23010A   24134.49178978 -.00003485  00000-0 -28423-3 0  9994,2 55269  69.9991 281.7368 0003091 267.9815  92.0990 14.98351300 73427,6950.127,96.106,574.14,569.844,0.0
55269.0,STARLINK-5277,PAYLOAD,2024-05-13 19:48:50,14.98353393,0.0002894,69.999,280.8944,267.969,92.1138,-0.00020677,-2.561e-05,0.0,0 STARLINK-5277,1 55269U 23010A   24134.82558417 -.00002561  00000-0 -20677-3 0  9998,2 55269  69.9990 280.8944 0002894 267.9690  92.1138 14.98353393 73471,6950.121,96.105,573.997,569.974,0.0
55269.0,STARLINK-5277,PAYLOAD,2024-05-14 11:50:12,14.98307237,0.000282,70.0004,279.2125,268.4336,91.65,0.0010652,0.00012632,0.0,0 STARLINK-5277,1 55269U 23010A   24135.49319612  .00012632  00000-0  10652-2 0  9993,2 55269  70.0004 279.2125 0002820 268.4336  91.6500 14.98307237 72983,6950.263,96.108,574.088,570.168,0.0
55269.0,STARLINK-5277,PAYLOAD,2024-05-14 16:38:35,14.98318492,0.000273,70.0,278.7071,265.3561,94.7286,0.0011166,0.00013251,0.0,0 STARLINK-5277,1 55269U 23010A   24135.69347187  .00013251  00000-0  11166-2 0  9992,2 55269  70.0000 278.7071 0002730 265.3561  94.7286 14.98318492 73014,6950.228,96.108,573.991,570.196,0.0
55269.0,STARLINK-5277,PAYLOAD,2024-05-15 13:28:20,14.98348753,0.0003298,69.9978,276.5162,271.3617,88.7164,0.00013444,1.512e-05,0.0,0 STARLINK-5277,1 55269U 23010A   24136.56134436  .00001512  00000-0  13444-3 0  9999,2 55269  69.9978 276.5162 0003298 271.3617  88.7164 14.98348753 73731,6950.135,96.106,574.292,569.708,0.0
55269.0,STARLINK-5277,PAYLOAD,2024-05-15 18:16:43,14.98352412,0.0003363,69.9984,276.0111,277.58,82.4977,0.00014503,1.639e-05,0.0,0 STARLINK-5277,1 55269U 23010A   24136.76161932  .00001639  00000-0  14503-3 0  9999,2 55269  69.9984 276.0111 0003363 277.5800  82.4977 14.98352412 73170,6950.124,96.106,574.326,569.651,0.0
55269.0,STARLINK-5277,PAYLOAD,2024-05-16 02:17:24,14.98346516,0.0003224,69.9997,275.1688,276.852,83.2272,-5.5334e-05,-7.54e-06,0.0,0 STARLINK-5277,1 55269U 23010A   24137.09542237 -.00000754  00000-0 -55334-4 0  9994,2 55269  69.9997 275.1688 0003224 276.8520  83.2272 14.98346516 73221,6950.142,96.106,574.248,569.766,0.0
55269.0,STARLINK-5277,PAYLOAD,2024-05-16 11:54:16,14.98305171,0.0002739,69.9998,274.1632,268.2191,91.8654,-0.00059868,-7.224e-05,0.0,0 STARLINK-5277,1 55269U 23010A   24137.49602187 -.00007224  00000-0 -59868-3 0  9993,2 55269  69.9998 274.1632 0002739 268.2191  91.8654 14.98305171 73286,6950.27,96.109,574.038,570.231,0.0
55269.0,STARLINK-5277,PAYLOAD,2024-05-16 15:06:29,14.98343345,0.0002864,69.9966,273.8211,269.6327,90.4504,-0.00020178,-2.501e-05,0.0,0 STARLINK-5277,1 55269U 23010A   24137.62950960 -.00002501  00000-0 -20178-3 0  9998,2 55269  69.9966 273.8211 0002864 269.6327  90.4504 14.98343345 73896,6950.152,96.106,574.007,570.026,0.0
55269.0,STARLINK-5277,PAYLOAD,2024-05-17 11:56:13,14.98344883,0.0003077,69.9997,271.6361,275.2634,84.8174,0.0001651,1.878e-05,0.0,0 STARLINK-5277,1 55269U 23010A   24138.49737708  .00001878  00000-0  16510-3 0  9996,2 55269  69.9997 271.6361 0003077 275.2634  84.8174 14.98344883 73431,6950.147,96.106,574.15,569.873,0.0
55269.0,STARLINK-5277,PAYLOAD,2024-05-17 15:08:29,14.98349961,0.0003017,69.9996,271.2978,271.3508,88.7306,0.00039024,4.569e-05,0.0,0 STARLINK-5277,1 55269U 23010A   24138.63089611  .00004569  00000-0  39024-3 0  9990,2 55269  69.9996 271.2978 0003017 271.3508  88.7306 14.98349961 74041,6950.131,96.106,574.093,569.899,0.0
55269.0,STARLINK-5277,PAYLOAD,2024-05-17 18:20:45,14.9835106,0.0002908,69.9996,270.9613,271.19,88.8926,0.00038638,4.523e-05,0.0,0 STARLINK-5277,1 55269U 23010A   24138.76441475  .00004523  00000-0  38638-3 0  9994,2 55269  69.9996 270.9613 0002908 271.1900  88.8926 14.98351060 74069,6950.128,96.106,574.014,569.972,0.0
55269.0,STARLINK-5277,PAYLOAD,2024-05-18 13:34:22,14.98337603,0.0002944,70.0005,268.943,269.2139,90.8682,0.00064772,7.645e-05,0.0,0 STARLINK-5277,1 55269U 23010A   24139.56554051  .00007645  00000-0  64772-3 0  9994,2 55269  70.0005 268.9430 0002944 269.2139  90.8682 14.98337603 73595,6950.169,96.107,574.081,569.988,0.0
55269.0,STARLINK-5277,PAYLOAD,2024-05-18 15:10:30,14.98344459,0.0002612,70.0014,268.7739,259.6988,100.3876,0.00071397,8.439e-05,0.0,0 STARLINK-5277,1 55269U 23010A   24139.63229332  .00008439  00000-0  71397-3 0  9996,2 55269  70.0014 268.7739 0002612 259.6988 100.3876 14.98344459 74198,6950.148,96.106,573.829,570.198,0.0
55269.0,STARLINK-5277,PAYLOAD,2024-05-18 18:22:45,14.98348833,0.0002552,70.0019,268.4374,257.4957,102.5917,0.00072785,8.606e-05,0.0,0 STARLINK-5277,1 55269U 23010A   24139.76581003  .00008606  00000-0  72785-3 0  9994,2 55269  70.0019 268.4374 0002552 257.4957 102.5917 14.98348833 73627,6950.135,96.106,573.773,570.226,0.0
55269.0,STARLINK-5277,PAYLOAD,2024-05-19 13:36:23,14.98318386,0.0002563,70.0006,266.4173,268.071,92.0155,-0.00054499,-6.587e-05,0.0,0 STARLINK-5277,1 55269U 23010A   24140.56694140 -.00006587  00000-0 -54499-3 0  9991,2 55269  70.0006 266.4173 0002563 268.0710  92.0155 14.98318386 74331,6950.229,96.108,573.875,570.312,0.0
55269.0,STARLINK-5277,PAYLOAD,2024-05-20 13:38:23,14.98341823,0.0002797,70.0004,263.893,269.3293,90.7545,0.0001121,1.245e-05,0.0,0 STARLINK-5277,1 55269U 23010A   24141.56832849  .00001245  00000-0  11210-3 0  9990,2 55269  70.0004 263.8930 0002797 269.3293  90.7545 14.98341823 73890,6950.156,96.106,573.965,570.077,0.0
55269.0,STARLINK-5277,PAYLOAD,2024-05-20 18:26:47,14.98350404,0.0002824,70.0002,263.3912,261.9024,98.1814,0.00014632,1.654e-05,0.0,0 STARLINK-5277,1 55269U 23010A   24141.76860016  .00001654  00000-0  14632-3 0  9994,2 55269  70.0002 263.3912 0002824 261.9024  98.1814 14.98350404 73924,6950.13,96.106,573.958,570.032,0.0
55269.0,STARLINK-5277,PAYLOAD,2024-05-21 12:04:17,14.98314709,0.0002929,69.9997,261.5376,274.1583,85.9242,0.00028643,3.325e-05,0.0,0 STARLINK-5277,1 55269U 23010A   24142.50298140  .00003325  00000-0  28643-3 0  9994,2 55269  69.9997 261.5376 0002929 274.1583  85.9242 14.98314709 74030,6950.24,96.108,574.141,570.069,0.0
55269.0,STARLINK-5277,PAYLOAD,2024-05-21 13:40:25,14.98313819,0.0002768,70.0002,261.3697,270.3124,89.7718,0.00029782,3.461e-05,0.0,0 STARLINK-5277,1 55269U 23010A   24142.56974215  .00003461  00000-0  29782-3 0  9990,2 55269  70.0002 261.3697 0002768 270.3124  89.7718 14.98313819 74631,6950.243,96.108,574.032,570.184,0.0
55269.0,STARLINK-5277,PAYLOAD,2024-05-21 18:28:49,14.98318541,0.0002459,70.0009,260.8656,260.3763,99.7119,0.00028642,3.325e-05,0.0,0 STARLINK-5277,1 55269U 23010A   24142.77002102  .00003325  00000-0  28642-3 0  9993,2 55269  70.0009 260.8656 0002459 260.3763  99.7119 14.98318541 74668,6950.228,96.108,573.802,570.384,0.0
55269.0,STARLINK-5277,PAYLOAD,2024-05-22 12:06:18,14.98337125,0.0002668,70.0006,259.0152,263.3551,96.7304,-3.3177e-05,-4.89e-06,0.0,0 STARLINK-5277,1 55269U 23010A   24143.50437513 -.00000489  00000-0 -33177-4 0  9993,2 55269  70.0006 259.0152 0002668 263.3551  96.7304 14.98337125 74185,6950.171,96.107,573.89,570.182,0.0
